{"fetched_at":"2026-07-07T07:58:44.398Z","source":"https://celestrak.org/NORAD/elements/gp.php?NAME=O3B&FORMAT=JSON","constellation":"o3b-mpower","records":[{"OBJECT_NAME":"O3B MPOWER F1","OBJECT_ID":"2022-174A","EPOCH":"2026-07-06T15:56:01.037760","CLASSIFICATION_TYPE":"U","MEAN_MOTION":5.00114858,"ECCENTRICITY":0.0006579,"INCLINATION":0.05,"RA_OF_ASC_NODE":339.8878,"ARG_OF_PERICENTER":136.7868,"MEAN_ANOMALY":119.4271,"EPHEMERIS_TYPE":0,"NORAD_CAT_ID":54755,"ELEMENT_SET_NO":999,"REV_AT_EPOCH":6633,"BSTAR":0,"MEAN_MOTION_DOT":-1e-7,"MEAN_MOTION_DDOT":0},{"OBJECT_NAME":"O3B MPOWER F2","OBJECT_ID":"2022-174B","EPOCH":"2026-07-06T16:47:12.213024","CLASSIFICATION_TYPE":"U","MEAN_MOTION":5.00114978,"ECCENTRICITY":0.0005819,"INCLINATION":0.0459,"RA_OF_ASC_NODE":339.9709,"ARG_OF_PERICENTER":120.4876,"MEAN_ANOMALY":259.6075,"EPHEMERIS_TYPE":0,"NORAD_CAT_ID":54756,"ELEMENT_SET_NO":999,"REV_AT_EPOCH":6642,"BSTAR":0,"MEAN_MOTION_DOT":-1e-7,"MEAN_MOTION_DDOT":0},{"OBJECT_NAME":"O3B MPOWER F4","OBJECT_ID":"2023-059A","EPOCH":"2026-07-06T13:31:51.847392","CLASSIFICATION_TYPE":"U","MEAN_MOTION":5.00115469,"ECCENTRICITY":0.0007713,"INCLINATION":0.063,"RA_OF_ASC_NODE":351.3262,"ARG_OF_PERICENTER":117.9807,"MEAN_ANOMALY":250.777,"EPHEMERIS_TYPE":0,"NORAD_CAT_ID":56367,"ELEMENT_SET_NO":999,"REV_AT_EPOCH":5957,"BSTAR":0,"MEAN_MOTION_DOT":-1e-7,"MEAN_MOTION_DDOT":0},{"OBJECT_NAME":"O3B MPOWER F3","OBJECT_ID":"2023-059B","EPOCH":"2026-07-06T14:19:35.904576","CLASSIFICATION_TYPE":"U","MEAN_MOTION":5.00116482,"ECCENTRICITY":0.0006688,"INCLINATION":0.0638,"RA_OF_ASC_NODE":350.6967,"ARG_OF_PERICENTER":111.8577,"MEAN_ANOMALY":257.5209,"EPHEMERIS_TYPE":0,"NORAD_CAT_ID":56368,"ELEMENT_SET_NO":999,"REV_AT_EPOCH":5570,"BSTAR":0,"MEAN_MOTION_DOT":-1e-7,"MEAN_MOTION_DDOT":0},{"OBJECT_NAME":"O3B MPOWER F5","OBJECT_ID":"2023-175A","EPOCH":"2026-07-06T16:45:01.286784","CLASSIFICATION_TYPE":"U","MEAN_MOTION":5.00115949,"ECCENTRICITY":0.00054,"INCLINATION":0.0512,"RA_OF_ASC_NODE":9.8663,"ARG_OF_PERICENTER":113.6007,"MEAN_ANOMALY":236.585,"EPHEMERIS_TYPE":0,"NORAD_CAT_ID":58346,"ELEMENT_SET_NO":999,"REV_AT_EPOCH":5041,"BSTAR":0,"MEAN_MOTION_DOT":-1e-7,"MEAN_MOTION_DDOT":0},{"OBJECT_NAME":"O3B MPOWER F6","OBJECT_ID":"2023-175B","EPOCH":"2026-07-06T04:46:10.730784","CLASSIFICATION_TYPE":"U","MEAN_MOTION":5.0011578,"ECCENTRICITY":0.00044452,"INCLINATION":0.0534,"RA_OF_ASC_NODE":1.6861,"ARG_OF_PERICENTER":100.6704,"MEAN_ANOMALY":257.6936,"EPHEMERIS_TYPE":0,"NORAD_CAT_ID":58347,"ELEMENT_SET_NO":999,"REV_AT_EPOCH":4930,"BSTAR":0,"MEAN_MOTION_DOT":-1e-7,"MEAN_MOTION_DDOT":0},{"OBJECT_NAME":"O3B MPOWER F7","OBJECT_ID":"2024-244A","EPOCH":"2026-07-06T15:57:28.091808","CLASSIFICATION_TYPE":"U","MEAN_MOTION":5.00115343,"ECCENTRICITY":0.0005963,"INCLINATION":0.0665,"RA_OF_ASC_NODE":344.33,"ARG_OF_PERICENTER":116.5179,"MEAN_ANOMALY":259.2196,"EPHEMERIS_TYPE":0,"NORAD_CAT_ID":62362,"ELEMENT_SET_NO":999,"REV_AT_EPOCH":2750,"BSTAR":0,"MEAN_MOTION_DOT":-1e-7,"MEAN_MOTION_DDOT":0},{"OBJECT_NAME":"O3B MPOWER F8","OBJECT_ID":"2024-244B","EPOCH":"2026-07-06T15:09:52.151040","CLASSIFICATION_TYPE":"U","MEAN_MOTION":5.00115112,"ECCENTRICITY":0.0005825,"INCLINATION":0.0142,"RA_OF_ASC_NODE":353.536,"ARG_OF_PERICENTER":100.6579,"MEAN_ANOMALY":265.8731,"EPHEMERIS_TYPE":0,"NORAD_CAT_ID":62363,"ELEMENT_SET_NO":999,"REV_AT_EPOCH":2184,"BSTAR":0,"MEAN_MOTION_DOT":-1e-7,"MEAN_MOTION_DDOT":0},{"OBJECT_NAME":"O3B MPOWER F9","OBJECT_ID":"2025-153A","EPOCH":"2026-07-06T13:33:57.384000","CLASSIFICATION_TYPE":"U","MEAN_MOTION":5.00115723,"ECCENTRICITY":0.0006628,"INCLINATION":0.0604,"RA_OF_ASC_NODE":6.8416,"ARG_OF_PERICENTER":117.5437,"MEAN_ANOMALY":235.6778,"EPHEMERIS_TYPE":0,"NORAD_CAT_ID":64866,"ELEMENT_SET_NO":999,"REV_AT_EPOCH":2053,"BSTAR":0,"MEAN_MOTION_DOT":-1e-7,"MEAN_MOTION_DDOT":0},{"OBJECT_NAME":"O3B MPOWER F10","OBJECT_ID":"2025-153B","EPOCH":"2026-07-05T17:33:40.784256","CLASSIFICATION_TYPE":"U","MEAN_MOTION":5.00114939,"ECCENTRICITY":0.00021476,"INCLINATION":0.0576,"RA_OF_ASC_NODE":3.3762,"ARG_OF_PERICENTER":246.3073,"MEAN_ANOMALY":110.2934,"EPHEMERIS_TYPE":0,"NORAD_CAT_ID":64867,"ELEMENT_SET_NO":999,"REV_AT_EPOCH":2296,"BSTAR":0,"MEAN_MOTION_DOT":-1.1e-7,"MEAN_MOTION_DDOT":0}]}
