O3B MPOWER F1           
1 54755U 22174A   26187.66390090 -.00000010  00000+0  00000+0 0  9999
2 54755   0.0500 339.8878 0006579 136.7868 119.4271  5.00114858 66330
O3B MPOWER F2           
1 54756U 22174B   26187.69944691 -.00000010  00000+0  00000+0 0  9995
2 54756   0.0459 339.9709 0005819 120.4876 259.6075  5.00114978 66425
O3B MPOWER F4           
1 56367U 23059A   26187.56379453 -.00000010  00000+0  00000+0 0  9992
2 56367   0.0630 351.3262 0007713 117.9807 250.7770  5.00115469 59576
O3B MPOWER F3           
1 56368U 23059B   26187.59694334 -.00000010  00000+0  00000+0 0  9994
2 56368   0.0638 350.6967 0006688 111.8577 257.5209  5.00116482 55705
O3B MPOWER F5           
1 58346U 23175A   26187.69793156 -.00000010  00000+0  00000+0 0  9994
2 58346   0.0512   9.8663 0005400 113.6007 236.5850  5.00115949 50418
O3B MPOWER F6           
1 58347U 23175B   26187.19873531 -.00000010  00000+0  00000+0 0  9996
2 58347   0.0534   1.6861 0004445 100.6704 257.6936  5.00115780 49309
O3B MPOWER F7           
1 62362U 24244A   26187.66490847 -.00000010  00000+0  00000+0 0  9993
2 62362   0.0665 344.3300 0005963 116.5179 259.2196  5.00115343 27508
O3B MPOWER F8           
1 62363U 24244B   26187.63185360 -.00000010  00000+0  00000+0 0  9992
2 62363   0.0142 353.5360 0005825 100.6579 265.8731  5.00115112 21845
O3B MPOWER F9           
1 64866U 25153A   26187.56524750 -.00000010  00000+0  00000+0 0  9994
2 64866   0.0604   6.8416 0006628 117.5437 235.6778  5.00115723 20539
O3B MPOWER F10          
1 64867U 25153B   26186.73172204 -.00000011  00000+0  00000+0 0  9997
2 64867   0.0576   3.3762 0002147 246.3073 110.2934  5.00114939 22962
